<?xml version="1.0" encoding="UTF-8" standalone="yes"?>
<gpx version="1.1" creator="https://onthegomap.com" xmlns="http://www.topografix.com/GPX/1/1">
  <metadata>
    <name>3.3 mile route</name>
    <link href="https://onthegomap.com">
      <text>On The Go Map</text>
    </link>
    <time>2026-07-23T17:06:27.413Z</time>
    <copyright author="On The Go Map, OpenStreetMap Contributors">
      <year>2026</year>
    </copyright>
  </metadata>
  <trk>
    <name>3.3 mile route</name>
    <trkseg>
      <trkpt lat="42.3282" lon="-83.03766"/>
      <trkpt lat="42.3282" lon="-83.03766"/>
      <trkpt lat="42.32816" lon="-83.03779"/>
      <trkpt lat="42.32813" lon="-83.03789"/>
      <trkpt lat="42.3281" lon="-83.03802"/>
      <trkpt lat="42.32806" lon="-83.03818"/>
      <trkpt lat="42.32803" lon="-83.03831"/>
      <trkpt lat="42.32795" lon="-83.03861"/>
      <trkpt lat="42.32791" lon="-83.03878"/>
      <trkpt lat="42.32787" lon="-83.0389"/>
      <trkpt lat="42.32783" lon="-83.03907"/>
      <trkpt lat="42.32761" lon="-83.03988"/>
      <trkpt lat="42.3275" lon="-83.04026"/>
      <trkpt lat="42.32738" lon="-83.04074"/>
      <trkpt lat="42.32718" lon="-83.04151"/>
      <trkpt lat="42.32709" lon="-83.04187"/>
      <trkpt lat="42.32702" lon="-83.04207"/>
      <trkpt lat="42.32689" lon="-83.04214"/>
      <trkpt lat="42.32645" lon="-83.0437"/>
      <trkpt lat="42.32633" lon="-83.04413"/>
      <trkpt lat="42.32616" lon="-83.04474"/>
      <trkpt lat="42.32595" lon="-83.04541"/>
      <trkpt lat="42.32582" lon="-83.04587"/>
      <trkpt lat="42.3256" lon="-83.04663"/>
      <trkpt lat="42.32544" lon="-83.04716"/>
      <trkpt lat="42.32522" lon="-83.04792"/>
      <trkpt lat="42.32504" lon="-83.04855"/>
      <trkpt lat="42.32487" lon="-83.04915"/>
      <trkpt lat="42.32467" lon="-83.04983"/>
      <trkpt lat="42.32441" lon="-83.05072"/>
      <trkpt lat="42.32415" lon="-83.05165"/>
      <trkpt lat="42.32407" lon="-83.05189"/>
      <trkpt lat="42.32441" lon="-83.05209"/>
      <trkpt lat="42.32415" lon="-83.05308"/>
      <trkpt lat="42.32402" lon="-83.05319"/>
      <trkpt lat="42.32354" lon="-83.05501"/>
      <trkpt lat="42.32324" lon="-83.05613"/>
      <trkpt lat="42.3233" lon="-83.05633"/>
      <trkpt lat="42.32321" lon="-83.05671"/>
      <trkpt lat="42.32321" lon="-83.0571"/>
      <trkpt lat="42.32319" lon="-83.05721"/>
      <trkpt lat="42.32297" lon="-83.05801"/>
      <trkpt lat="42.32281" lon="-83.05824"/>
      <trkpt lat="42.32275" lon="-83.05848"/>
      <trkpt lat="42.32243" lon="-83.05968"/>
      <trkpt lat="42.32252" lon="-83.06012"/>
      <trkpt lat="42.32251" lon="-83.06036"/>
      <trkpt lat="42.3223" lon="-83.0606"/>
      <trkpt lat="42.32217" lon="-83.0607"/>
      <trkpt lat="42.32206" lon="-83.06084"/>
      <trkpt lat="42.32199" lon="-83.06104"/>
      <trkpt lat="42.32187" lon="-83.06131"/>
      <trkpt lat="42.32186" lon="-83.06145"/>
      <trkpt lat="42.32185" lon="-83.0615"/>
      <trkpt lat="42.32173" lon="-83.06157"/>
      <trkpt lat="42.32156" lon="-83.06194"/>
      <trkpt lat="42.32154" lon="-83.06208"/>
      <trkpt lat="42.32145" lon="-83.06241"/>
      <trkpt lat="42.32137" lon="-83.06261"/>
      <trkpt lat="42.32125" lon="-83.06279"/>
      <trkpt lat="42.32115" lon="-83.06296"/>
      <trkpt lat="42.32106" lon="-83.06317"/>
      <trkpt lat="42.32101" lon="-83.06343"/>
      <trkpt lat="42.32095" lon="-83.06353"/>
      <trkpt lat="42.32091" lon="-83.06363"/>
      <trkpt lat="42.32073" lon="-83.06404"/>
      <trkpt lat="42.32065" lon="-83.06426"/>
      <trkpt lat="42.32044" lon="-83.0648"/>
      <trkpt lat="42.32025" lon="-83.06527"/>
      <trkpt lat="42.32016" lon="-83.06551"/>
      <trkpt lat="42.32026" lon="-83.06529"/>
      <trkpt lat="42.32046" lon="-83.06528"/>
      <trkpt lat="42.32065" lon="-83.06526"/>
      <trkpt lat="42.3209" lon="-83.06525"/>
      <trkpt lat="42.32097" lon="-83.06523"/>
      <trkpt lat="42.32113" lon="-83.06517"/>
      <trkpt lat="42.32119" lon="-83.0651"/>
      <trkpt lat="42.32126" lon="-83.06503"/>
      <trkpt lat="42.32135" lon="-83.06488"/>
      <trkpt lat="42.32141" lon="-83.06471"/>
      <trkpt lat="42.32143" lon="-83.06456"/>
      <trkpt lat="42.32144" lon="-83.06438"/>
      <trkpt lat="42.32145" lon="-83.06417"/>
      <trkpt lat="42.32142" lon="-83.064"/>
      <trkpt lat="42.3214" lon="-83.06386"/>
      <trkpt lat="42.32133" lon="-83.06352"/>
      <trkpt lat="42.32131" lon="-83.06335"/>
      <trkpt lat="42.3213" lon="-83.06323"/>
      <trkpt lat="42.3213" lon="-83.06308"/>
      <trkpt lat="42.32133" lon="-83.06299"/>
      <trkpt lat="42.3214" lon="-83.06278"/>
      <trkpt lat="42.32149" lon="-83.06264"/>
      <trkpt lat="42.32163" lon="-83.06251"/>
      <trkpt lat="42.322" lon="-83.06238"/>
      <trkpt lat="42.32239" lon="-83.06221"/>
      <trkpt lat="42.32258" lon="-83.06208"/>
      <trkpt lat="42.32268" lon="-83.06191"/>
      <trkpt lat="42.32277" lon="-83.06172"/>
      <trkpt lat="42.32277" lon="-83.06154"/>
      <trkpt lat="42.32279" lon="-83.06127"/>
      <trkpt lat="42.32275" lon="-83.06108"/>
      <trkpt lat="42.32264" lon="-83.06082"/>
      <trkpt lat="42.32261" lon="-83.06072"/>
      <trkpt lat="42.3228" lon="-83.06045"/>
      <trkpt lat="42.32302" lon="-83.06017"/>
      <trkpt lat="42.3233" lon="-83.05982"/>
      <trkpt lat="42.32357" lon="-83.05944"/>
      <trkpt lat="42.3237" lon="-83.05928"/>
      <trkpt lat="42.32378" lon="-83.05917"/>
      <trkpt lat="42.32384" lon="-83.05908"/>
      <trkpt lat="42.3228" lon="-83.05847"/>
      <trkpt lat="42.32276" lon="-83.05844"/>
      <trkpt lat="42.32279" lon="-83.05832"/>
      <trkpt lat="42.32283" lon="-83.05822"/>
      <trkpt lat="42.32289" lon="-83.05812"/>
      <trkpt lat="42.32296" lon="-83.05802"/>
      <trkpt lat="42.32299" lon="-83.05794"/>
      <trkpt lat="42.32318" lon="-83.05722"/>
      <trkpt lat="42.32321" lon="-83.05709"/>
      <trkpt lat="42.32321" lon="-83.05673"/>
      <trkpt lat="42.32323" lon="-83.05661"/>
      <trkpt lat="42.32331" lon="-83.05632"/>
      <trkpt lat="42.32324" lon="-83.05613"/>
      <trkpt lat="42.32357" lon="-83.05487"/>
      <trkpt lat="42.32402" lon="-83.05321"/>
      <trkpt lat="42.32413" lon="-83.05308"/>
      <trkpt lat="42.32441" lon="-83.05209"/>
      <trkpt lat="42.32408" lon="-83.05187"/>
      <trkpt lat="42.32458" lon="-83.05013"/>
      <trkpt lat="42.32483" lon="-83.04927"/>
      <trkpt lat="42.32536" lon="-83.04744"/>
      <trkpt lat="42.32556" lon="-83.04669"/>
      <trkpt lat="42.32609" lon="-83.04495"/>
      <trkpt lat="42.3263" lon="-83.0442"/>
      <trkpt lat="42.32686" lon="-83.04229"/>
      <trkpt lat="42.32691" lon="-83.04213"/>
      <trkpt lat="42.32704" lon="-83.04206"/>
      <trkpt lat="42.32714" lon="-83.04165"/>
      <trkpt lat="42.32772" lon="-83.03947"/>
      <trkpt lat="42.32818" lon="-83.03772"/>
      <trkpt lat="42.32821" lon="-83.03767"/>
    </trkseg>
  </trk>
</gpx>